{"type": "FeatureCollection", "features": [ {"type": "Feature", "properties": {"norad_id": 33939, "name": "COSMOS 2251 DEB", "group": "cosmos-2251-debris", "lat": -12.895168824036322, "lon": -105.94334348965384, "alt_km": 572.8860682223194, "timestamp": "2025-12-17T19:34:08.430846+00:00", "meta": {"OBJECT_NAME": "COSMOS 2251 DEB", "OBJECT_ID": "1993-036EU", "EPOCH": "2025-12-17T07:30:26.641440", "MEAN_MOTION": 15.0022601, "ECCENTRICITY": 0.00040272, "INCLINATION": 74.0072, "RA_OF_ASC_NODE": 71.3149, "ARG_OF_PERICENTER": 37.462, "MEAN_ANOMALY": 322.6847, "EPHEMERIS_TYPE": 0, "CLASSIFICATION_TYPE": "U", "NORAD_CAT_ID": 33939, "ELEMENT_SET_NO": 999, "REV_AT_EPOCH": 88821, "BSTAR": 0.0022588056, "MEAN_MOTION_DOT": 0.00028345, "MEAN_MOTION_DDOT": 0}, "tle": {"line1": "1 33939U 93036EU  25351.31280835  .00028345  00000+0  22588-2 0  9992", "line2": "2 33939  74.0072  71.3149 0004027  37.4620 322.6847 15.00226010888215"}}, "geometry": {"type": "Point", "coordinates": [-105.94334348965384, -12.895168824036322]}}, {"type": "Feature", "properties": {"norad_id": 33940, "name": "COSMOS 2251 DEB", "group": "cosmos-2251-debris", "lat": -64.3640773399934, "lon": 97.22094872800079, "alt_km": 701.9422977219374, "timestamp": "2025-12-17T19:34:08.430856+00:00", "meta": {"OBJECT_NAME": "COSMOS 2251 DEB", "OBJECT_ID": "1993-036EV", "EPOCH": "2025-12-17T04:15:06.561792", "MEAN_MOTION": 14.58837471, "ECCENTRICITY": 0.00111097, "INCLINATION": 74.0389, "RA_OF_ASC_NODE": 135.0472, "ARG_OF_PERICENTER": 215.1574, "MEAN_ANOMALY": 324.6631, "EPHEMERIS_TYPE": 0, "CLASSIFICATION_TYPE": "U", "NORAD_CAT_ID": 33940, "ELEMENT_SET_NO": 999, "REV_AT_EPOCH": 88658, "BSTAR": 0.00084243366, "MEAN_MOTION_DOT": 3.918e-05, "MEAN_MOTION_DDOT": 0}, "tle": {"line1": "1 33940U 93036EV  25351.17715928  .00003918  00000+0  84243-3 0  9990", "line2": "2 33940  74.0389 135.0472 0011109 215.1574 324.6631 14.58837471886589"}}, "geometry": {"type": "Point", "coordinates": [97.22094872800079, -64.3640773399934]}}, {"type": "Feature", "properties": {"norad_id": 33942, "name": "COSMOS 2251 DEB", "group": "cosmos-2251-debris", "lat": 66.45808619922977, "lon": 44.41079439816288, "alt_km": 765.5534758248177, "timestamp": "2025-12-17T19:34:08.430866+00:00", "meta": {"OBJECT_NAME": "COSMOS 2251 DEB", "OBJECT_ID": "1993-036EX", "EPOCH": "2025-12-17T06:16:21.435744", "MEAN_MOTION": 14.37995327, "ECCENTRICITY": 0.00205176, "INCLINATION": 74.0366, "RA_OF_ASC_NODE": 266.5015, "ARG_OF_PERICENTER": 348.8686, "MEAN_ANOMALY": 131.5542, "EPHEMERIS_TYPE": 0, "CLASSIFICATION_TYPE": "U", "NORAD_CAT_ID": 33942, "ELEMENT_SET_NO": 999, "REV_AT_EPOCH": 88199, "BSTAR": 0.00019572917, "MEAN_MOTION_DOT": 5.67e-06, "MEAN_MOTION_DDOT": 0}, "tle": {"line1": "1 33942U 93036EX  25351.26135921  .00000567  00000+0  19573-3 0  9992", "line2": "2 33942  74.0366 266.5015 0020517 348.8686 131.5542 14.37995327881998"}}, "geometry": {"type": "Point", "coordinates": [44.41079439816288, 66.45808619922977]}}, {"type": "Feature", "properties": {"norad_id": 33944, "name": "COSMOS 2251 DEB", "group": "cosmos-2251-debris", "lat": -29.96065575156902, "lon": -69.90652295594401, "alt_km": 743.3769949388179, "timestamp": "2025-12-17T19:34:08.430876+00:00", "meta": {"OBJECT_NAME": "COSMOS 2251 DEB", "OBJECT_ID": "1993-036EZ", "EPOCH": "2025-12-17T06:51:54.758880", "MEAN_MOTION": 14.3735365, "ECCENTRICITY": 0.01123641, "INCLINATION": 74.0405, "RA_OF_ASC_NODE": 300.5616, "ARG_OF_PERICENTER": 38.9908, "MEAN_ANOMALY": 73.1416, "EPHEMERIS_TYPE": 0, "CLASSIFICATION_TYPE": "U", "NORAD_CAT_ID": 33944, "ELEMENT_SET_NO": 999, "REV_AT_EPOCH": 88093, "BSTAR": 0.00031647434, "MEAN_MOTION_DOT": 9.89e-06, "MEAN_MOTION_DDOT": 0}, "tle": {"line1": "1 33944U 93036EZ  25351.28605045  .00000989  00000+0  31647-3 0  9999", "line2": "2 33944  74.0405 300.5616 0112364  38.9908  73.1416 14.37353650880937"}}, "geometry": {"type": "Point", "coordinates": [-69.90652295594401, -29.96065575156902]}}, {"type": "Feature", "properties": {"norad_id": 33945, "name": "COSMOS 2251 DEB", "group": "cosmos-2251-debris", "lat": 66.7479052372148, "lon": -21.238380115943972, "alt_km": 759.5357631690304, "timestamp": "2025-12-17T19:34:08.430886+00:00", "meta": {"OBJECT_NAME": "COSMOS 2251 DEB", "OBJECT_ID": "1993-036FA", "EPOCH": "2025-12-17T07:31:00.128352", "MEAN_MOTION": 14.34604746, "ECCENTRICITY": 0.00221185, "INCLINATION": 74.03, "RA_OF_ASC_NODE": 297.8868, "ARG_OF_PERICENTER": 22.9714, "MEAN_ANOMALY": 337.2422, "EPHEMERIS_TYPE": 0, "CLASSIFICATION_TYPE": "U", "NORAD_CAT_ID": 33945, "ELEMENT_SET_NO": 999, "REV_AT_EPOCH": 88081, "BSTAR": 0.00012212269, "MEAN_MOTION_DOT": 3.2e-06, "MEAN_MOTION_DDOT": 0}, "tle": {"line1": "1 33945U 93036FA  25351.31319593  .00000320  00000+0  12212-3 0  9990", "line2": "2 33945  74.0300 297.8868 0022118  22.9714 337.2422 14.34604746880814"}}, "geometry": {"type": "Point", "coordinates": [-21.238380115943972, 66.7479052372148]}}, {"type": "Feature", "properties": {"norad_id": 33948, "name": "COSMOS 2251 DEB", "group": "cosmos-2251-debris", "lat": -56.239515064116446, "lon": -89.5342158356228, "alt_km": 774.0651450145551, "timestamp": "2025-12-17T19:34:08.430896+00:00", "meta": {"OBJECT_NAME": "COSMOS 2251 DEB", "OBJECT_ID": "1993-036FD", "EPOCH": "2025-12-17T06:28:01.763904", "MEAN_MOTION": 14.35634838, "ECCENTRICITY": 0.0022935, "INCLINATION": 74.0358, "RA_OF_ASC_NODE": 296.8229, "ARG_OF_PERICENTER": 11.5111, "MEAN_ANOMALY": 348.6561, "EPHEMERIS_TYPE": 0, "CLASSIFICATION_TYPE": "U", "NORAD_CAT_ID": 33948, "ELEMENT_SET_NO": 999, "REV_AT_EPOCH": 88088, "BSTAR": 0.00017553677, "MEAN_MOTION_DOT": 4.82e-06, "MEAN_MOTION_DDOT": 0}, "tle": {"line1": "1 33948U 93036FD  25351.26946486  .00000482  00000+0  17554-3 0  9997", "line2": "2 33948  74.0358 296.8229 0022935  11.5111 348.6561 14.35634838880885"}}, "geometry": {"type": "Point", "coordinates": [-89.5342158356228, -56.239515064116446]}}, {"type": "Feature", "properties": {"norad_id": 33971, "name": "COSMOS 2251 DEB", "group": "cosmos-2251-debris", "lat": 72.70278298577908, "lon": -48.736008198808435, "alt_km": 754.2139909435209, "timestamp": "2025-12-17T19:34:08.430906+00:00", "meta": {"OBJECT_NAME": "COSMOS 2251 DEB", "OBJECT_ID": "1993-036FE", "EPOCH": "2025-12-17T04:56:23.691264", "MEAN_MOTION": 14.39733162, "ECCENTRICITY": 0.00187172, "INCLINATION": 74.0246, "RA_OF_ASC_NODE": 245.4793, "ARG_OF_PERICENTER": 345.1265, "MEAN_ANOMALY": 179.9521, "EPHEMERIS_TYPE": 0, "CLASSIFICATION_TYPE": "U", "NORAD_CAT_ID": 33971, "ELEMENT_SET_NO": 999, "REV_AT_EPOCH": 88203, "BSTAR": 0.00022043578, "MEAN_MOTION_DOT": 6.65e-06, "MEAN_MOTION_DDOT": 0}, "tle": {"line1": "1 33971U 93036FE  25351.20582976  .00000665  00000+0  22044-3 0  9990", "line2": "2 33971  74.0246 245.4793 0018717 345.1265 179.9521 14.39733162882036"}}, "geometry": {"type": "Point", "coordinates": [-48.736008198808435, 72.70278298577908]}}, {"type": "Feature", "properties": {"norad_id": 33972, "name": "COSMOS 2251 DEB", "group": "cosmos-2251-debris", "lat": -41.30894128757576, "lon": 166.70634584227923, "alt_km": 701.323947051882, "timestamp": "2025-12-17T19:34:08.430917+00:00", "meta": {"OBJECT_NAME": "COSMOS 2251 DEB", "OBJECT_ID": "1993-036FF", "EPOCH": "2025-12-16T13:58:43.061376", "MEAN_MOTION": 14.3625194, "ECCENTRICITY": 0.01234613, "INCLINATION": 73.9939, "RA_OF_ASC_NODE": 183.5873, "ARG_OF_PERICENTER": 350.5001, "MEAN_ANOMALY": 74.5972, "EPHEMERIS_TYPE": 0, "CLASSIFICATION_TYPE": "U", "NORAD_CAT_ID": 33972, "ELEMENT_SET_NO": 999, "REV_AT_EPOCH": 87129, "BSTAR": 0.00089755376, "MEAN_MOTION_DOT": 2.832e-05, "MEAN_MOTION_DDOT": 0}, "tle": {"line1": "1 33972U 93036FF  25350.58244284  .00002832  00000+0  89755-3 0  9998", "line2": "2 33972  73.9939 183.5873 0123461 350.5001  74.5972 14.36251940871298"}}, "geometry": {"type": "Point", "coordinates": [166.70634584227923, -41.30894128757576]}}, {"type": "Feature", "properties": {"norad_id": 33973, "name": "COSMOS 2251 DEB", "group": "cosmos-2251-debris", "lat": -51.91269053941565, "lon": -65.12047960633151, "alt_km": 719.9838096716858, "timestamp": "2025-12-17T19:34:08.430927+00:00", "meta": {"OBJECT_NAME": "COSMOS 2251 DEB", "OBJECT_ID": "1993-036FG", "EPOCH": "2025-12-17T06:57:22.088736", "MEAN_MOTION": 14.4539587, "ECCENTRICITY": 0.00473609, "INCLINATION": 74.0086, "RA_OF_ASC_NODE": 94.3975, "ARG_OF_PERICENTER": 271.9892, "MEAN_ANOMALY": 109.7387, "EPHEMERIS_TYPE": 0, "CLASSIFICATION_TYPE": "U", "NORAD_CAT_ID": 33973, "ELEMENT_SET_NO": 999, "REV_AT_EPOCH": 88666, "BSTAR": 0.00012711344, "MEAN_MOTION_DOT": 4.25e-06, "MEAN_MOTION_DDOT": 0}, "tle": {"line1": "1 33973U 93036FG  25351.28983899  .00000425  00000+0  12711-3 0  9993", "line2": "2 33973  74.0086  94.3975 0047360 271.9892 109.7387 14.45395870886662"}}, "geometry": {"type": "Point", "coordinates": [-65.12047960633151, -51.91269053941565]}}, {"type": "Feature", "properties": {"norad_id": 33975, "name": "COSMOS 2251 DEB", "group": "cosmos-2251-debris", "lat": 68.62887343395425, "lon": 123.50228403972729, "alt_km": 975.9423194769797, "timestamp": "2025-12-17T19:34:08.430938+00:00", "meta": {"OBJECT_NAME": "COSMOS 2251 DEB", "OBJECT_ID": "1993-036FJ", "EPOCH": "2025-12-17T07:11:42.670752", "MEAN_MOTION": 14.00534383, "ECCENTRICITY": 0.01911904, "INCLINATION": 73.802, "RA_OF_ASC_NODE": 76.4372, "ARG_OF_PERICENTER": 208.6279, "MEAN_ANOMALY": 150.4255, "EPHEMERIS_TYPE": 0, "CLASSIFICATION_TYPE": "U", "NORAD_CAT_ID": 33975, "ELEMENT_SET_NO": 999, "REV_AT_EPOCH": 85893, "BSTAR": 0.00048983611, "MEAN_MOTION_DOT": 8.26e-06, "MEAN_MOTION_DDOT": 0}, "tle": {"line1": "1 33975U 93036FJ  25351.29979943  .00000826  00000+0  48984-3 0  9997", "line2": "2 33975  73.8020  76.4372 0191190 208.6279 150.4255 14.00534383858939"}}, "geometry": {"type": "Point", "coordinates": [123.50228403972729, 68.62887343395425]}}]}